start=new Date('2021-11-28T00:00:00.000Z').valueOf();
sats=[{"ECCENTRICITY":"0.00013440","ELEMENT_SET_NO":"999","LAUNCH_DATE":"2020-06-13","GP_ID":"190620247","MEAN_MOTION_DDOT":"0.0000000000000","SITE":"AFETR","TIME_SYSTEM":"UTC","OBJECT_NAME":"STARLINK-1490","OBJECT_TYPE":"PAYLOAD","BSTAR":"0.00002112200000","RA_OF_ASC_NODE":"12.5811","FILE":"3225675","NORAD_CAT_ID":"45777","MEAN_ANOMALY":"289.6749","MEAN_MOTION":"15.06397168","SEMIMAJOR_AXIS":"6925.357","CLASSIFICATION_TYPE":"U","COUNTRY_CODE":"US","DECAY_DATE":null,"PERIOD":"95.592","ARG_OF_PERICENTER":"70.4385","EPOCH":"2021-11-27T19:53:37.680576","TLE_LINE1":"1 45777U 20038AZ  21331.82890834  .00000033  00000-0  21122-4 0  9993","MEAN_ELEMENT_THEORY":"SGP4","RCS_SIZE":"LARGE","MEAN_MOTION_DOT":"0.00000033","REV_AT_EPOCH":"8120","OBJECT_ID":"2020-038AZ","INCLINATION":"53.0560","REF_FRAME":"TEME","APOAPSIS":"548.153","CENTER_NAME":"EARTH","PERIAPSIS":"546.291","EPHEMERIS_TYPE":"0","TLE_LINE2":"2 45777  53.0560  12.5811 0001344  70.4385 289.6749 15.06397168 81200"},{"ECCENTRICITY":"0.00014270","ELEMENT_SET_NO":"999","MEAN_MOTION_DDOT":"0.0000000000000","LAUNCH_DATE":"2020-06-13","GP_ID":"190620983","SITE":"AFETR","TIME_SYSTEM":"UTC","OBJECT_NAME":"STARLINK-1491","BSTAR":"-0.00006794600000","OBJECT_TYPE":"PAYLOAD","NORAD_CAT_ID":"45778","FILE":"3225675","RA_OF_ASC_NODE":"12.6625","MEAN_MOTION":"15.06390960","MEAN_ANOMALY":"288.0633","CLASSIFICATION_TYPE":"U","SEMIMAJOR_AXIS":"6925.376","COUNTRY_CODE":"US","DECAY_DATE":null,"EPOCH":"2021-11-27T19:27:05.339808","PERIOD":"95.593","ARG_OF_PERICENTER":"72.0512","MEAN_ELEMENT_THEORY":"SGP4","TLE_LINE1":"1 45778U 20038BA  21331.81047847 -.00001293  00000-0 -67946-4 0  9996","RCS_SIZE":"LARGE","MEAN_MOTION_DOT":"-0.00001293","REV_AT_EPOCH":"8118","OBJECT_ID":"2020-038BA","INCLINATION":"53.0553","REF_FRAME":"TEME","APOAPSIS":"548.230","PERIAPSIS":"546.253","CENTER_NAME":"EARTH","TLE_LINE2":"2 45778  53.0553  12.6625 0001427  72.0512 288.0633 15.06390960 81184","EPHEMERIS_TYPE":"0"},{"MEAN_MOTION_DDOT":"0.0000000000000","LAUNCH_DATE":"2020-06-13","GP_ID":"190591941","ELEMENT_SET_NO":"999","ECCENTRICITY":"0.00015540","BSTAR":"-0.00009389100000","OBJECT_TYPE":"PAYLOAD","TIME_SYSTEM":"UTC","OBJECT_NAME":"STARLINK-1492","SITE":"AFETR","RA_OF_ASC_NODE":"13.8780","FILE":"3225405","NORAD_CAT_ID":"45779","DECAY_DATE":null,"COUNTRY_CODE":"US","SEMIMAJOR_AXIS":"6925.373","CLASSIFICATION_TYPE":"U","MEAN_MOTION":"15.06392123","MEAN_ANOMALY":"294.5612","EPOCH":"2021-11-27T12:59:37.268448","PERIOD":"95.593","ARG_OF_PERICENTER":"65.5539","REV_AT_EPOCH":"8114","MEAN_MOTION_DOT":"-0.00001679","RCS_SIZE":"LARGE","MEAN_ELEMENT_THEORY":"SGP4","TLE_LINE1":"1 45779U 20038BB  21331.54140357 -.00001679  00000-0 -93891-4 0  9993","INCLINATION":"53.0544","OBJECT_ID":"2020-038BB","TLE_LINE2":"2 45779  53.0544  13.8780 0001554  65.5539 294.5612 15.06392123 81145","EPHEMERIS_TYPE":"0","PERIAPSIS":"546.161","CENTER_NAME":"EARTH","REF_FRAME":"TEME","APOAPSIS":"548.314"},{"ELEMENT_SET_NO":"999","ECCENTRICITY":"0.00013640","MEAN_MOTION_DDOT":"0.0000000000000","LAUNCH_DATE":"2020-06-13","GP_ID":"190620497","OBJECT_NAME":"STARLINK-1496","TIME_SYSTEM":"UTC","SITE":"AFETR","BSTAR":"-0.00000145580000","OBJECT_TYPE":"PAYLOAD","RA_OF_ASC_NODE":"12.6337","FILE":"3225675","NORAD_CAT_ID":"45780","SEMIMAJOR_AXIS":"6925.371","CLASSIFICATION_TYPE":"U","MEAN_MOTION":"15.06392836","MEAN_ANOMALY":"292.5989","DECAY_DATE":null,"COUNTRY_CODE":"US","EPOCH":"2021-11-27T19:37:42.440448","PERIOD":"95.593","ARG_OF_PERICENTER":"67.5144","RCS_SIZE":"LARGE","MEAN_ELEMENT_THEORY":"SGP4","TLE_LINE1":"1 45780U 20038BC  21331.81785232 -.00000303  00000-0 -14558-5 0  9999","REV_AT_EPOCH":"8118","MEAN_MOTION_DOT":"-0.00000303","OBJECT_ID":"2020-038BC","INCLINATION":"53.0567","PERIAPSIS":"546.291","CENTER_NAME":"EARTH","APOAPSIS":"548.180","REF_FRAME":"TEME","TLE_LINE2":"2 45780  53.0567  12.6337 0001364  67.5144 292.5989 15.06392836 81180","EPHEMERIS_TYPE":"0"},{"MEAN_MOTION_DOT":"0.00000287","REV_AT_EPOCH":"8119","MEAN_ELEMENT_THEORY":"SGP4","TLE_LINE1":"1 45781U 20038BD  21331.84364048  .00000287  00000-0  38177-4 0  9992","RCS_SIZE":"LARGE","EPOCH":"2021-11-27T20:14:50.537472","ARG_OF_PERICENTER":"73.2603","PERIOD":"95.592","TLE_LINE2":"2 45781  53.0557  12.5175 0001271  73.2603 286.8525 15.06404216 81199","EPHEMERIS_TYPE":"0","APOAPSIS":"548.081","REF_FRAME":"TEME","PERIAPSIS":"546.320","CENTER_NAME":"EARTH","INCLINATION":"53.0557","OBJECT_ID":"2020-038BD","BSTAR":"0.00003817700000","OBJECT_TYPE":"PAYLOAD","SITE":"AFETR","TIME_SYSTEM":"UTC","OBJECT_NAME":"STARLINK-1497","MEAN_MOTION_DDOT":"0.0000000000000","LAUNCH_DATE":"2020-06-13","GP_ID":"190620747","ECCENTRICITY":"0.00012710","ELEMENT_SET_NO":"999","COUNTRY_CODE":"US","DECAY_DATE":null,"MEAN_MOTION":"15.06404216","MEAN_ANOMALY":"286.8525","CLASSIFICATION_TYPE":"U","SEMIMAJOR_AXIS":"6925.336","RA_OF_ASC_NODE":"12.5175","FILE":"3225675","NORAD_CAT_ID":"45781"},{"SEMIMAJOR_AXIS":"6925.358","CLASSIFICATION_TYPE":"U","MEAN_MOTION":"15.06397068","MEAN_ANOMALY":"297.6373","DECAY_DATE":null,"COUNTRY_CODE":"US","FILE":"3225675","RA_OF_ASC_NODE":"12.5459","NORAD_CAT_ID":"45782","TIME_SYSTEM":"UTC","OBJECT_NAME":"STARLINK-1498","SITE":"AFETR","BSTAR":"0.00004895500000","OBJECT_TYPE":"PAYLOAD","ELEMENT_SET_NO":"999","ECCENTRICITY":"0.00013840","MEAN_MOTION_DDOT":"0.0000000000000","LAUNCH_DATE":"2020-06-13","GP_ID":"190621483","PERIAPSIS":"546.264","CENTER_NAME":"EARTH","REF_FRAME":"TEME","APOAPSIS":"548.181","TLE_LINE2":"2 45782  53.0563  12.5459 0001384  62.4756 297.6373 15.06397068 81205","EPHEMERIS_TYPE":"0","OBJECT_ID":"2020-038BE","INCLINATION":"53.0563","RCS_SIZE":"LARGE","MEAN_ELEMENT_THEORY":"SGP4","TLE_LINE1":"1 45782U 20038BE  21331.83627896  .00000448  00000-0  48955-4 0  9999","REV_AT_EPOCH":"8120","MEAN_MOTION_DOT":"0.00000448","EPOCH":"2021-11-27T20:04:14.502144","PERIOD":"95.592","ARG_OF_PERICENTER":"62.4756"},{"ECCENTRICITY":"0.00012420","ELEMENT_SET_NO":"999","GP_ID":"190621242","LAUNCH_DATE":"2020-06-13","MEAN_MOTION_DDOT":"0.0000000000000","SITE":"AFETR","TIME_SYSTEM":"UTC","OBJECT_NAME":"STARLINK-1505","OBJECT_TYPE":"PAYLOAD","BSTAR":"-0.00001513700000","RA_OF_ASC_NODE":"12.5143","FILE":"3225675","NORAD_CAT_ID":"45783","MEAN_ANOMALY":"294.7755","MEAN_MOTION":"15.06391412","SEMIMAJOR_AXIS":"6925.375","CLASSIFICATION_TYPE":"U","COUNTRY_CODE":"US","DECAY_DATE":null,"PERIOD":"95.593","ARG_OF_PERICENTER":"65.3363","EPOCH":"2021-11-27T20:09:33.369984","TLE_LINE1":"1 45783U 20038BF  21331.83996956 -.00000507  00000-0 -15137-4 0  9990","MEAN_ELEMENT_THEORY":"SGP4","RCS_SIZE":"LARGE","MEAN_MOTION_DOT":"-0.00000507","REV_AT_EPOCH":"8120","OBJECT_ID":"2020-038BF","INCLINATION":"53.0550","REF_FRAME":"TEME","APOAPSIS":"548.100","CENTER_NAME":"EARTH","PERIAPSIS":"546.380","EPHEMERIS_TYPE":"0","TLE_LINE2":"2 45783  53.0550  12.5143 0001242  65.3363 294.7755 15.06391412 81200"},{"PERIOD":"95.592","ARG_OF_PERICENTER":"64.1305","EPOCH":"2021-11-27T19:32:23.363520","RCS_SIZE":"LARGE","TLE_LINE1":"1 45784U 20038BG  21331.81415930 -.00000253  00000-0  18977-5 0  9990","MEAN_ELEMENT_THEORY":"SGP4","REV_AT_EPOCH":"8119","MEAN_MOTION_DOT":"-0.00000253","OBJECT_ID":"2020-038BG","INCLINATION":"53.0560","CENTER_NAME":"EARTH","PERIAPSIS":"546.311","APOAPSIS":"548.120","REF_FRAME":"TEME","EPHEMERIS_TYPE":"0","TLE_LINE2":"2 45784  53.0560  12.6497 0001306  64.1305 295.9819 15.06399222 81198","ELEMENT_SET_NO":"999","ECCENTRICITY":"0.00013060","GP_ID":"190619998","LAUNCH_DATE":"2020-06-13","MEAN_MOTION_DDOT":"0.0000000000000","TIME_SYSTEM":"UTC","OBJECT_NAME":"STARLINK-1510","SITE":"AFETR","OBJECT_TYPE":"PAYLOAD","BSTAR":"0.00000189770000","FILE":"3225675","RA_OF_ASC_NODE":"12.6497","NORAD_CAT_ID":"45784","CLASSIFICATION_TYPE":"U","SEMIMAJOR_AXIS":"6925.351","MEAN_ANOMALY":"295.9819","MEAN_MOTION":"15.06399222","DECAY_DATE":null,"COUNTRY_CODE":"US"},{"FILE":"3225405","NORAD_CAT_ID":"45785","RA_OF_ASC_NODE":"14.8105","DECAY_DATE":null,"COUNTRY_CODE":"US","SEMIMAJOR_AXIS":"6925.289","CLASSIFICATION_TYPE":"U","MEAN_ANOMALY":"249.6216","MEAN_MOTION":"15.06419306","LAUNCH_DATE":"2020-06-13","GP_ID":"190591440","MEAN_MOTION_DDOT":"0.0000000000000","ELEMENT_SET_NO":"999","ECCENTRICITY":"0.00021200","OBJECT_TYPE":"PAYLOAD","BSTAR":"0.00027673000000","OBJECT_NAME":"STARLINK-1512","TIME_SYSTEM":"UTC","SITE":"AFETR","INCLINATION":"53.0546","OBJECT_ID":"2020-038BH","EPHEMERIS_TYPE":"0","TLE_LINE2":"2 45785  53.0546  14.8105 0002120 110.5001 249.6216 15.06419306 81123","CENTER_NAME":"EARTH","PERIAPSIS":"545.686","APOAPSIS":"548.623","REF_FRAME":"TEME","ARG_OF_PERICENTER":"110.5001","PERIOD":"95.591","EPOCH":"2021-11-27T07:57:02.965248","REV_AT_EPOCH":"8112","MEAN_MOTION_DOT":"0.00003845","RCS_SIZE":"LARGE","TLE_LINE1":"1 45785U 20038BH  21331.33128432  .00003845  00000-0  27673-3 0  9996","MEAN_ELEMENT_THEORY":"SGP4"},{"PERIOD":"95.592","ARG_OF_PERICENTER":"73.3575","EPOCH":"2021-11-27T20:20:09.723264","TLE_LINE1":"1 45786U 20038BJ  21331.84733476  .00001915  00000-0  14740-3 0  9990","MEAN_ELEMENT_THEORY":"SGP4","RCS_SIZE":"LARGE","MEAN_MOTION_DOT":"0.00001915","REV_AT_EPOCH":"8120","OBJECT_ID":"2020-038BJ","INCLINATION":"53.0546","APOAPSIS":"548.212","REF_FRAME":"TEME","CENTER_NAME":"EARTH","PERIAPSIS":"546.187","EPHEMERIS_TYPE":"0","TLE_LINE2":"2 45786  53.0546  12.4890 0001462  73.3575 286.7574 15.06404522 81201","ECCENTRICITY":"0.00014620","ELEMENT_SET_NO":"999","GP_ID":"190620984","LAUNCH_DATE":"2020-06-13","MEAN_MOTION_DDOT":"0.0000000000000","SITE":"AFETR","TIME_SYSTEM":"UTC","OBJECT_NAME":"STARLINK-1513","OBJECT_TYPE":"PAYLOAD","BSTAR":"0.00014740000000","NORAD_CAT_ID":"45786","FILE":"3225675","RA_OF_ASC_NODE":"12.4890","MEAN_ANOMALY":"286.7574","MEAN_MOTION":"15.06404522","SEMIMAJOR_AXIS":"6925.335","CLASSIFICATION_TYPE":"U","COUNTRY_CODE":"US","DECAY_DATE":null}];
